NORAD_CAT_ID,OBJECT_NAME,OBJECT_TYPE,EPOCH,MEAN_MOTION,ECCENTRICITY,INCLINATION,RA_OF_ASC_NODE,ARG_OF_PERICENTER,MEAN_ANOMALY,BSTAR,MEAN_MOTION_DOT,MEAN_MOTION_DDOT,TLE_LINE0,TLE_LINE1,TLE_LINE2,SEMIMAJOR_AXIS,PERIOD,APOGEE,PERIGEE,DECAYED
52615.0,STARLINK-4011,PAYLOAD,2022-11-16 11:06:49,15.08847028,0.0002456,53.2176,312.5444,34.2453,325.8697,0.0001983,2.87e-05,0.0,0 STARLINK-4011,1 52615U 22052T   22320.46307081  .00002870  00000-0  19830-3 0  9999,2 52615  53.2176 312.5444 0002456  34.2453 325.8697 15.08847028 28223,6917.859,95.437,541.423,538.025,0.0
52615.0,STARLINK-4011,PAYLOAD,2022-11-17 01:25:17,15.08848413,0.0002479,53.2175,309.8683,34.3298,325.7854,0.00019929,2.886e-05,0.0,0 STARLINK-4011,1 52615U 22052T   22321.05922843  .00002886  00000-0  19929-3 0  9990,2 52615  53.2175 309.8683 0002479  34.3298 325.7854 15.08848413 28693,6917.855,95.437,541.435,538.005,0.0
52615.0,STARLINK-4011,PAYLOAD,2022-11-17 09:22:13,15.08840125,0.000258,53.218,308.3819,31.8059,328.3089,7.627000000000003e-06,-1.67e-06,0.0,0 STARLINK-4011,1 52615U 22052T   22321.39043220 -.00000167  00000-0  76270-5 0  9995,2 52615  53.2180 308.3819 0002580  31.8059 328.3089 15.08840125 28741,6917.88,95.438,541.53,537.96,0.0
52615.0,STARLINK-4011,PAYLOAD,2022-11-17 10:57:36,15.08839896,0.0002586,53.218,308.0842,31.9269,328.1879,-6.6652e-06,-3.95e-06,0.0,0 STARLINK-4011,1 52615U 22052T   22321.45667203 -.00000395  00000-0 -66652-5 0  9992,2 52615  53.2180 308.0842 0002586  31.9269 328.1879 15.08839896 28371,6917.880999999999,95.438,541.535,537.957,0.0
52615.0,STARLINK-4011,PAYLOAD,2022-11-18 07:37:36,15.08850429,0.000246,53.2178,304.2184,33.6275,326.4873,0.00011739,1.581e-05,0.0,0 STARLINK-4011,1 52615U 22052T   22322.31778354  .00001581  00000-0  11739-3 0  9998,2 52615  53.2178 304.2184 0002460  33.6275 326.4873 15.08850429 28888,6917.849,95.437,541.415,538.012,0.0
52615.0,STARLINK-4011,PAYLOAD,2022-11-18 15:34:32,15.08842468,0.0002545,53.2176,302.7318,33.6892,326.4261,8.0686e-05,9.96e-06,0.0,0 STARLINK-4011,1 52615U 22052T   22322.64898848  .00000996  00000-0  80686-4 0  9992,2 52615  53.2176 302.7318 0002545  33.6892 326.4261 15.08842468 28938,6917.873000000001,95.437,541.498,537.977,0.0
52615.0,STARLINK-4011,PAYLOAD,2022-11-19 09:03:47,15.0883773,0.0002359,53.2177,299.4614,33.4323,326.6818,-1.2765e-05,-4.92e-06,0.0,0 STARLINK-4011,1 52615U 22052T   22323.37762945 -.00000492  00000-0 -12765-4 0  9997,2 52615  53.2177 299.4614 0002359  33.4323 326.6818 15.08837730 28666,6917.887,95.438,541.384,538.12,0.0
52615.0,STARLINK-4011,PAYLOAD,2022-11-19 10:39:10,15.08837589,0.0002355,53.2177,299.1632,32.6674,327.4464,-2.8492e-05,-7.42e-06,0.0,0 STARLINK-4011,1 52615U 22052T   22323.44386919 -.00000742  00000-0 -28492-4 0  9990,2 52615  53.2177 299.1632 0002355  32.6674 327.4464 15.08837589 29051,6917.888000000001,95.438,541.382,538.124,0.0
52615.0,STARLINK-4011,PAYLOAD,2022-11-20 10:29:57,15.08836342,0.0002454,53.2183,294.7028,35.4825,324.633,2.8608e-06,-2.43e-06,0.0,0 STARLINK-4011,1 52615U 22052T   22324.43747644 -.00000243  00000-0  28608-5 0  9991,2 52615  53.2183 294.7028 0002454  35.4825 324.6330 15.08836342 28828,6917.892,95.438,541.4540000000002,538.059,0.0
52615.0,STARLINK-4011,PAYLOAD,2022-11-20 15:16:07,15.08838596,0.0002439,53.2185,293.8107,31.9555,328.1584,5.423800000000001e-05,5.75e-06,0.0,0 STARLINK-4011,1 52615U 22052T   22324.63619353  .00000575  00000-0  54238-4 0  9992,2 52615  53.2185 293.8107 0002439  31.9555 328.1584 15.08838596 29231,6917.885,95.438,541.437,538.062,0.0
52615.0,STARLINK-4011,PAYLOAD,2022-11-21 08:45:22,15.0883601,0.0002377,53.2186,290.5397,33.2387,326.8754,-1.5892e-05,-5.41e-06,0.0,0 STARLINK-4011,1 52615U 22052T   22325.36483797 -.00000541  00000-0 -15892-4 0  9992,2 52615  53.2186 290.5397 0002377  33.2387 326.8754 15.08836010 28968,6917.893,95.438,541.4019999999998,538.113,0.0
52615.0,STARLINK-4011,PAYLOAD,2022-11-21 21:28:26,15.08839156,0.0002368,53.2184,288.161,30.9677,329.1455,8.774700000000001e-05,1.108e-05,0.0,0 STARLINK-4011,1 52615U 22052T   22325.89475555  .00001108  00000-0  87747-4 0  9999,2 52615  53.2184 288.1610 0002368  30.9677 329.1455 15.08839156 29041,6917.8830000000025,95.438,541.386,538.11,0.0
52615.0,STARLINK-4011,PAYLOAD,2022-11-22 02:14:35,15.08844026,0.0002409,53.2186,287.269,31.6477,328.466,0.00020709,3.009e-05,0.0,0 STARLINK-4011,1 52615U 22052T   22326.09347113  .00003009  00000-0  20709-3 0  9996,2 52615  53.2186 287.2690 0002409  31.6477 328.4660 15.08844026 29450,6917.868,95.437,541.4,538.067,0.0
52615.0,STARLINK-4011,PAYLOAD,2022-11-22 07:00:45,15.08850252,0.0002467,53.2176,286.3766,32.4353,327.6791,0.00035087,5.302e-05,0.0,0 STARLINK-4011,1 52615U 22052T   22326.29219122  .00005302  00000-0  35087-3 0  9999,2 52615  53.2176 286.3766 0002467  32.4353 327.6791 15.08850252 29105,6917.849,95.437,541.4209999999998,538.007,0.0
52615.0,STARLINK-4011,PAYLOAD,2022-11-23 03:40:46,15.08836012,0.0002475,53.2177,282.51,35.3609,324.7547,1.4836e-06,-2.65e-06,0.0,0 STARLINK-4011,1 52615U 22052T   22327.15331774 -.00000265  00000-0  14836-5 0  9998,2 52615  53.2177 282.5100 0002475  35.3609 324.7547 15.08836012 29612,6917.893,95.438,541.47,538.045,0.0
52615.0,STARLINK-4011,PAYLOAD,2022-11-23 08:26:56,15.08836536,0.0002478,53.2183,281.6183,33.0099,327.1047,-1.1212e-05,-4.67e-06,0.0,0 STARLINK-4011,1 52615U 22052T   22327.35203999 -.00000467  00000-0 -11212-4 0  9996,2 52615  53.2183 281.6183 0002478  33.0099 327.1047 15.08836536 29265,6917.891,95.438,541.47,538.0419999999998,0.0
52615.0,STARLINK-4011,PAYLOAD,2022-11-24 08:17:42,15.08847853,0.0001751999999999,53.2172,277.1568,29.316,330.793,2.4823e-07,-2.84e-06,0.0,0 STARLINK-4011,1 52615U 22052T   22328.34563154 -.00000284  00000-0  24823-6 0  9998,2 52615  53.2172 277.1568 0001752  29.3160 330.7930 15.08847853 29794,6917.856,95.437,540.933,538.509,0.0
52615.0,STARLINK-4011,PAYLOAD,2022-11-24 21:00:47,15.08842479,0.0002753,53.2184,274.7797,30.9247,329.1907,0.00014512,2.022e-05,0.0,0 STARLINK-4011,1 52615U 22052T   22328.87555199  .00002022  00000-0  14512-3 0  9998,2 52615  53.2184 274.7797 0002753  30.9247 329.1907 15.08842479 29492,6917.873000000001,95.437,541.6419999999998,537.8330000000002,0.0
52615.0,STARLINK-4011,PAYLOAD,2022-11-25 01:46:57,15.08834418,0.0002498,53.2183,273.8876,29.9561,330.1574,6.928300000000001e-05,8.14e-06,0.0,0 STARLINK-4011,1 52615U 22052T   22329.07427893  .00000814  00000-0  69283-4 0  9993,2 52615  53.2183 273.8876 0002498  29.9561 330.1574 15.08834418 29904,6917.897,95.438,541.491,538.034,0.0
52615.0,STARLINK-4011,PAYLOAD,2022-11-25 12:54:39,15.08841636,0.00025,53.2184,271.8061,30.0083,330.1052,0.00010498,1.383e-05,0.0,0 STARLINK-4011,1 52615U 22052T   22329.53795377  .00001383  00000-0  10498-3 0  9994,2 52615  53.2184 271.8061 0002500  30.0083 330.1052 15.08841636 29591,6917.875,95.437,541.47,538.011,0.0
52615.0,STARLINK-4011,PAYLOAD,2022-11-25 19:16:11,15.08847843,0.0002461,53.2183,270.6162,31.0636,329.0501,0.00014096,1.956e-05,0.0,0 STARLINK-4011,1 52615U 22052T   22329.80290797  .00001956  00000-0  14096-3 0  9994,2 52615  53.2183 270.6162 0002461  31.0636 329.0501 15.08847843 30011,6917.856,95.437,541.424,538.019,0.0
52615.0,STARLINK-4011,PAYLOAD,2022-11-26 12:45:25,15.08847636,0.0002502,53.2187,267.3475,29.9646,330.1489,0.00013548,1.869e-05,0.0,0 STARLINK-4011,1 52615U 22052T   22330.53154530  .00001869  00000-0  13548-3 0  9994,2 52615  53.2187 267.3475 0002502  29.9646 330.1489 15.08847636 29744,6917.857,95.437,541.453,537.991,0.0
52615.0,STARLINK-4011,PAYLOAD,2022-11-26 19:06:57,15.08857935,0.000324,53.2188,266.1589,32.8437,327.2756,2.8037e-07,-2.84e-06,0.0,0 STARLINK-4011,1 52615U 22052T   22330.79650171 -.00000284  00000-0  28037-6 0  9997,2 52615  53.2188 266.1589 0003240  32.8437 327.2756 15.08857935 29780,6917.826,95.436,541.932,537.4490000000002,0.0
52615.0,STARLINK-4011,PAYLOAD,2022-11-26 23:53:07,15.08841109,0.0002531,53.2195,265.2649,33.0902,327.0248,5.5747e-05,5.99e-06,0.0,0 STARLINK-4011,1 52615U 22052T   22330.99522816  .00000599  00000-0  55747-4 0  9997,2 52615  53.2195 265.2649 0002531  33.0902 327.0248 15.08841109 30194,6917.877,95.437,541.493,537.991,0.0
52615.0,STARLINK-4011,PAYLOAD,2022-11-27 03:03:54,15.0883481,0.0002189,53.2188,264.671,34.0113,326.1020000000001,3.1132e-07,-2.83e-06,0.0,0 STARLINK-4011,1 52615U 22052T   22331.12771282 -.00000283  00000-0  31132-6 0  9991,2 52615  53.2188 264.6710 0002189  34.0113 326.1020 15.08834810 30214,6917.896,95.438,541.276,538.247,0.0
52615.0,STARLINK-4011,PAYLOAD,2022-11-27 22:08:32,15.08831826,0.0002971,53.2184,261.1027,25.1961,334.9176,-0.00014685,-2.625e-05,0.0,0 STARLINK-4011,1 52615U 22052T   22331.92260408 -.00002625  00000-0 -14685-3 0  9996,2 52615  53.2184 261.1027 0002971  25.1961 334.9176 15.08831826 30330,6917.905,95.438,541.826,537.715,0.0
52615.0,STARLINK-4011,PAYLOAD,2022-11-28 12:27:00,15.08844278,0.000269,53.2184,258.4256,26.2304,333.8824,-0.00014098,-2.532e-05,0.0,0 STARLINK-4011,1 52615U 22052T   22332.51875718 -.00002532  00000-0 -14098-3 0  9993,2 52615  53.2184 258.4256 0002690  26.2304 333.8824 15.08844278 30427,6917.8669999999975,95.437,541.5930000000002,537.871,0.0
52615.0,STARLINK-4011,PAYLOAD,2022-11-29 02:45:28,15.08854112,0.0002763,53.2185,255.749,26.2683,333.8449,-6.7782e-05,-1.368e-05,0.0,0 STARLINK-4011,1 52615U 22052T   22333.11491011 -.00001368  00000-0 -67782-4 0  9995,2 52615  53.2185 255.7490 0002763  26.2683 333.8449 15.08854112 30510,6917.837,95.437,541.614,537.7909999999998,0.0
52615.0,STARLINK-4011,PAYLOAD,2022-11-29 18:39:19,15.0883917,0.0002709,53.2185,252.7759,30.4221,329.6928,0.00016412,2.325e-05,0.0,0 STARLINK-4011,1 52615U 22052T   22333.77731311  .00002325  00000-0  16412-3 0  9992,2 52615  53.2185 252.7759 0002709  30.4221 329.6928 15.08839170 30613,6917.8830000000025,95.438,541.622,537.874,0.0
